NORAD_CAT_ID,OBJECT_NAME,OBJECT_TYPE,EPOCH,MEAN_MOTION,ECCENTRICITY,INCLINATION,RA_OF_ASC_NODE,ARG_OF_PERICENTER,MEAN_ANOMALY,BSTAR,MEAN_MOTION_DOT,MEAN_MOTION_DDOT,TLE_LINE0,TLE_LINE1,TLE_LINE2,SEMIMAJOR_AXIS,PERIOD,APOGEE,PERIGEE,DECAYED
52463.0,STARLINK-3885,PAYLOAD,2022-05-13 14:00:01,15.79827781,0.0001685,53.2176,230.8777,29.8777,304.0827,-0.0051772,-0.00880627,0.0,0 STARLINK-3885,1 52463U 22049N   22133.58334491 -.00880627  00000-0 -51772-2 0  9992,2 52463  53.2176 230.8777 0001685  29.8777 304.0827 15.79827781  1303,6709.065,91.149,332.061,329.8,0.0
52463.0,STARLINK-3885,PAYLOAD,2022-05-13 16:00:00,15.79592782,0.0001568,53.2168,230.4609,38.5151,49.6806,-0.0045493,-0.007751,0.0,0 STARLINK-3885,1 52463U 22049N   22133.66667824 -.00775100  00000-0 -45493-2 0  9992,2 52463  53.2168 230.4609 0001568  38.5151  49.6806 15.79592782  1317,6709.731,91.163,332.648,330.543,0.0
52463.0,STARLINK-3885,PAYLOAD,2022-05-14 06:00:00,15.78566947,0.0001494,53.2174,227.547,43.7211,122.4926,-0.0054461,-0.00874941,0.0,0 STARLINK-3885,1 52463U 22049N   22134.25001157 -.00874941  00000-0 -54461-2 0  9997,2 52463  53.2174 227.5470 0001494  43.7211 122.4926 15.78566947  1406,6712.637,91.222,335.505,333.499,0.0
52463.0,STARLINK-3885,PAYLOAD,2022-05-14 14:00:01,15.77938871,0.0001659,53.2174,225.8873,36.4828,224.7212,-0.0056268,-0.00878298,0.0,0 STARLINK-3885,1 52463U 22049N   22134.58334491 -.00878298  00000-0 -56268-2 0  9999,2 52463  53.2174 225.8873 0001659  36.4828 224.7212 15.77938871  1301,6714.418000000002,91.258,337.397,335.1690000000001,0.0
52463.0,STARLINK-3885,PAYLOAD,2022-05-14 22:00:00,15.7730973,0.0001337,53.2175,224.2259,38.3987,317.041,-0.0057852,-0.00877717,0.0,0 STARLINK-3885,1 52463U 22049N   22134.91667824 -.00877717  00000-0 -57852-2 0  9990,2 52463  53.2175 224.2259 0001337  38.3987 317.0410 15.77309730  1305,6716.204000000002,91.295,338.967,337.171,0.0
52463.0,STARLINK-3885,PAYLOAD,2022-05-15 06:00:00,15.76677947,0.0001597,53.2177,222.566,33.8344,55.0857,-0.0059142,-0.00872859,0.0,0 STARLINK-3885,1 52463U 22049N   22135.25001157 -.00872859  00000-0 -59142-2 0  9995,2 52463  53.2177 222.5660 0001597  33.8344  55.0857 15.76677947  1568,6717.998000000001,91.331,340.935,338.79,0.0
52463.0,STARLINK-3885,PAYLOAD,2022-05-15 14:00:01,15.76049696,0.0001778,53.2176,220.9108,36.0711,145.6362,-0.0060979,-0.00874989,0.0,0 STARLINK-3885,1 52463U 22049N   22135.58335648 -.00874989  00000-0 -60979-2 0  9992,2 52463  53.2176 220.9108 0001778  36.0711 145.6362 15.76049696  1303,6719.783,91.368,342.843,340.4530000000001,0.0
52463.0,STARLINK-3885,PAYLOAD,2022-05-15 22:00:00,15.75422657,0.0001534,53.2174,219.2538,37.872,235.7364,-0.006301,-0.00878879,0.0,0 STARLINK-3885,1 52463U 22049N   22135.91667824 -.00878879  00000-0 -63010-2 0  9994,2 52463  53.2174 219.2538 0001534  37.8720 235.7364 15.75422657  1302,6721.566,91.404,344.462,342.4,0.0
52463.0,STARLINK-3885,PAYLOAD,2022-05-16 06:00:02,15.74791011,0.0001526,53.2175,217.5988,33.3206,331.565,-0.0064394,-0.00874075,0.0,0 STARLINK-3885,1 52463U 22049N   22136.25002315 -.00874075  00000-0 -64394-2 0  9990,2 52463  53.2175 217.5988 0001526  33.3206 331.5650 15.74791011  1725,6723.363,91.441,346.254,344.202,0.0
52463.0,STARLINK-3885,PAYLOAD,2022-05-16 14:00:01,15.74162806,0.0002189,53.2175,215.9484,19.0213,76.2516,-0.0066428,-0.0087717,0.0,0 STARLINK-3885,1 52463U 22049N   22136.58334491 -.00877170  00000-0 -66428-2 0  9998,2 52463  53.2175 215.9484 0002189  19.0213  76.2516 15.74162806  1305,6725.151999999999,91.477,348.48900000000015,345.5440000000001,0.0
52463.0,STARLINK-3885,PAYLOAD,2022-05-16 22:00:00,15.73348499,0.0001555,53.2176,214.2956,38.7819,146.2173,-0.0015935,-0.00219916,0.0,0 STARLINK-3885,1 52463U 22049N   22136.91667824 -.00219916  00000-0 -15935-2 0  9999,2 52463  53.2176 214.2956 0001555  38.7819 146.2173 15.73348499  1825,6727.472,91.525,350.3830000000001,348.291,0.0
52463.0,STARLINK-3885,PAYLOAD,2022-05-17 06:00:00,15.73206271,0.0001527,53.2178,212.6454,44.1238,229.8831,-1.6027e-05,-2.869e-05,0.0,0 STARLINK-3885,1 52463U 22049N   22137.25001157 -.00002869  00000-0 -16027-4 0  9990,2 52463  53.2178 212.6454 0001527  44.1238 229.8831 15.73206271  1872,6727.877,91.533,350.77,348.715,0.0
52463.0,STARLINK-3885,PAYLOAD,2022-05-17 12:00:00,15.7326013,0.0001605,53.2142,211.4062,32.683,218.0904,-0.00043048,-0.00060758,0.0,0 STARLINK-3885,1 52463U 22049N   22137.50001157 -.00060758  00000-0 -43048-3 0  9991,2 52463  53.2142 211.4062 0001605  32.6830 218.0904 15.73260130  1912,6727.724,91.53,350.6690000000001,348.509,0.0
52463.0,STARLINK-3885,PAYLOAD,2022-05-17 14:00:01,15.73239155,0.000165,53.2144,210.9941,33.2089,329.8803,-0.00018879,-0.00027076,0.0,0 STARLINK-3885,1 52463U 22049N   22137.58335648 -.00027076  00000-0 -18879-3 0  9994,2 52463  53.2144 210.9941 0001650  33.2089 329.8803 15.73239155  1302,6727.784000000002,91.531,350.759,348.538,0.0
52463.0,STARLINK-3885,PAYLOAD,2022-05-17 20:00:01,15.73272174,0.0001686,53.2137,209.7558,36.0922,303.6879,-8.2449e-05,-0.00012212,0.0,0 STARLINK-3885,1 52463U 22049N   22137.83334491 -.00012212  00000-0 -82449-4 0  9998,2 52463  53.2137 209.7558 0001686  36.0922 303.6879 15.73272174  1974,6727.689,91.529,350.689,348.42,0.0
52463.0,STARLINK-3885,PAYLOAD,2022-05-17 22:00:01,15.73289933,0.0001643,53.2139,209.3427,39.1101,52.9828,-0.00034871,-0.00049463,0.0,0 STARLINK-3885,1 52463U 22049N   22137.91668981 -.00049463  00000-0 -34871-3 0  9994,2 52463  53.2139 209.3427 0001643  39.1101  52.9828 15.73289933  1309,6727.639,91.528,350.6090000000001,348.398,0.0
52463.0,STARLINK-3885,PAYLOAD,2022-05-18 14:00:01,15.73282312,0.0001746,53.2142,206.0452,33.6595,236.3814,-0.00089221,-0.00124446,0.0,0 STARLINK-3885,1 52463U 22049N   22138.58334491 -.00124446  00000-0 -89221-3 0  9998,2 52463  53.2142 206.0452 0001746  33.6595 236.3814 15.73282312  1302,6727.661,91.528,350.7,348.351,0.0
52463.0,STARLINK-3885,PAYLOAD,2022-05-18 20:00:01,15.73253581,0.0001676999999999,53.2139,204.8066,30.3559,216.4374,-0.0014098,-0.0019443,0.0,0 STARLINK-3885,1 52463U 22049N   22138.83334491 -.00194430  00000-0 -14098-2 0  9995,2 52463  53.2139 204.8066 0001677  30.3559 216.4374 15.73253581  2129,6727.7419999999975,91.53,350.736,348.47900000000016,0.0
52463.0,STARLINK-3885,PAYLOAD,2022-05-18 22:00:00,15.73196162,0.0001601,53.2142,204.3936,32.3114,326.7296,-0.00089095,-0.00123821,0.0,0 STARLINK-3885,1 52463U 22049N   22138.91667824 -.00123821  00000-0 -89095-3 0  9999,2 52463  53.2142 204.3936 0001601  32.3114 326.7296 15.73196162  1308,6727.906,91.533,350.848,348.694,0.0
52463.0,STARLINK-3885,PAYLOAD,2022-05-19 06:00:00,15.73205959,0.0001969,53.2177,202.7484,45.7048,41.9079,-1.8275e-05,-3.186e-05,0.0,0 STARLINK-3885,1 52463U 22049N   22139.25001157 -.00003186  00000-0 -18275-4 0  9992,2 52463  53.2177 202.7484 0001969  45.7048  41.9079 15.73205959  2195,6727.878000000002,91.533,351.0680000000001,348.418,0.0
52463.0,STARLINK-3885,PAYLOAD,2022-05-19 14:00:01,15.73173988,0.0001975,53.2155,201.0963,31.1121,145.82,3.0034e-05,3.592e-05,0.0,0 STARLINK-3885,1 52463U 22049N   22139.58335648  .00003592  00000-0  30034-4 0  9999,2 52463  53.2155 201.0963 0001975  31.1121 145.8200 15.73173988  1301,6727.969,91.535,351.163,348.506,0.0
52463.0,STARLINK-3885,PAYLOAD,2022-05-19 22:00:00,15.73174379,0.0001827,53.2152,199.4451,36.4828,229.3053,0.0004943,0.00069251,0.0,0 STARLINK-3885,1 52463U 22049N   22139.91667824  .00069251  00000-0  49430-3 0  9993,2 52463  53.2152 199.4451 0001827  36.4828 229.3053 15.73174379  2296,6727.968000000003,91.535,351.06199999999984,348.60400000000016,0.0
52463.0,STARLINK-3885,PAYLOAD,2022-05-20 14:00:01,15.73195515,0.0001929,53.2156,196.1479,27.1141,56.56,-0.00069737,-0.00097357,0.0,0 STARLINK-3885,1 52463U 22049N   22140.58334491 -.00097357  00000-0 -69737-3 0  9991,2 52463  53.2156 196.1479 0001929  27.1141  56.5600 15.73195515  2408,6727.908,91.533,351.071,348.475,0.0
52463.0,STARLINK-3885,PAYLOAD,2022-05-20 22:00:00,15.73081829,0.0001923,53.2158,194.4965,34.326,138.261,0.00055746,0.0007795,0.0,0 STARLINK-3885,1 52463U 22049N   22140.91667824  .00077950  00000-0  55746-3 0  9997,2 52463  53.2158 194.4965 0001923  34.3260 138.2610 15.73081829  1306,6728.232,91.54,351.391,348.80300000000005,0.0
52463.0,STARLINK-3885,PAYLOAD,2022-05-21 06:00:00,15.73156046,0.0002008,53.2159,192.8475,37.4666,223.9325,0.00034161,0.00047506,0.0,0 STARLINK-3885,1 52463U 22049N   22141.25001157  .00047506  00000-0  34161-3 0  9998,2 52463  53.2159 192.8475 0002008  37.4666 223.9325 15.73156046  2506,6728.02,91.536,351.236,348.535,0.0
52463.0,STARLINK-3885,PAYLOAD,2022-05-21 14:00:01,15.73155774,0.0002024,53.2165,191.2018,36.8937,313.4978,-0.0010511,-0.00145356,0.0,0 STARLINK-3885,1 52463U 22049N   22141.58335648 -.00145356  00000-0 -10511-2 0  9995,2 52463  53.2165 191.2018 0002024  36.8937 313.4978 15.73155774  2563,6728.021,91.536,351.24800000000016,348.525,0.0
52463.0,STARLINK-3885,PAYLOAD,2022-05-21 20:00:01,15.732596300000004,0.0001995,53.2153,189.9609,33.9518,293.0592,-0.00048703,-0.00068598,0.0,0 STARLINK-3885,1 52463U 22049N   22141.83334491 -.00068598  00000-0 -48703-3 0  9995,2 52463  53.2153 189.9609 0001995  33.9518 293.0592 15.73259630  2605,6727.725,91.53,350.932,348.24800000000016,0.0
52463.0,STARLINK-3885,PAYLOAD,2022-05-21 22:00:00,15.73226707,0.0001905,53.2154,189.5481,34.1465,45.12,-0.00013973,-0.00020208,0.0,0 STARLINK-3885,1 52463U 22049N   22141.91667824 -.00020208  00000-0 -13973-3 0  9990,2 52463  53.2154 189.5481 0001905  34.1465  45.1200 15.73226707  1302,6727.819,91.532,350.966,348.402,0.0
52463.0,STARLINK-3885,PAYLOAD,2022-05-22 14:00:01,15.73165258,0.0002145,53.2158,186.2512,29.2723,227.864,0.0003218,0.00044718,0.0,0 STARLINK-3885,1 52463U 22049N   22142.58334491  .00044718  00000-0  32180-3 0  9996,2 52463  53.2158 186.2512 0002145  29.2723 227.8640 15.73165258  2710,6727.994000000002,91.535,351.302,348.416,0.0
